COSMOS 2361 [-]         
1 25590U 98076A   23019.34528931  .00000111  00000+0  10332-3 0  9995
2 25590  82.9325  46.5736 0030748 330.6677  39.4827 13.73041116206162
COSMOS 2378 [-]         
1 26818U 01023A   23018.91615500  .00000115  00000+0  10685-3 0  9991
2 26818  82.9260  64.5416 0031575 275.1987 259.1123 13.73985138 83822
COSMOS 2389 [-]         
1 27436U 02026A   23018.70711024  .00000098  00000+0  85897-4 0  9995
2 27436  82.9509  10.7132 0047392 133.9188  39.2564 13.74993319 35948
COSMOS 2398 [-]         
1 27818U 03023A   23018.89173641  .00000083  00000+0  73873-4 0  9999
2 27818  82.9504 332.8720 0031433 171.1254 243.3049 13.72228179982934
COSMOS 2407 [+]         
1 28380U 04028A   23019.48810573  .00000101  00000+0  87519-4 0  9991
2 28380  82.9603 276.4786 0040137 131.9994  41.2967 13.76133469928867
COSMOS 2414 [+]         
1 28521U 05002A   23019.13041443  .00000121  00000+0  88844-4 0  9999
2 28521  82.9488 265.1627 0038996 279.7624  79.9136 13.87680554911452
COSMOS 2429 [-]         
1 32052U 07038A   23019.35439516  .00000090  00000+0  77486-4 0  9995
2 32052  82.9789  43.2365 0039806 110.7922 249.7506 13.74980910770670
COSMOS 2454 [-]         
1 35635U 09039A   23019.40237248  .00000123  00000+0  87558-4 0  9990
2 35635  82.9547 250.9011 0018377 217.8741 315.0581 13.89709361684685
COSMOS 2463 [+]         
1 36519U 10017A   23019.44321036  .00000079  00000+0  71115-4 0  9995
2 36519  82.9594  84.1745 0035706 345.9141  24.5364 13.71490804637399
